{
    "links": {
        "self": "http://www.neowsapp.com/rest/v1/neo/3470902?api_key=iIulBulltgU6a56xZRHN4H3l9WmuAYTsLGpBGhQ2"
    },
    "id": "3470902",
    "neo_reference_id": "3470902",
    "name": "(2009 TJ)",
    "designation": "2009 TJ",
    "nasa_jpl_url": "http://ssd.jpl.nasa.gov/sbdb.cgi?sstr=3470902",
    "absolute_magnitude_h": 22.7,
    "estimated_diameter": {
        "kilometers": {
            "estimated_diameter_min": 0.0766575574,
            "estimated_diameter_max": 0.1714115092
        },
        "meters": {
            "estimated_diameter_min": 76.6575573531,
            "estimated_diameter_max": 171.4115092306
        },
        "miles": {
            "estimated_diameter_min": 0.0476327831,
            "estimated_diameter_max": 0.1065101409
        },
        "feet": {
            "estimated_diameter_min": 251.5011804664,
            "estimated_diameter_max": 562.3737359442
        }
    },
    "is_potentially_hazardous_asteroid": false,
    "close_approach_data": [
        {
            "close_approach_date": "2009-10-13",
            "close_approach_date_full": "2009-Oct-13 03:24",
            "epoch_date_close_approach": 1255404240000,
            "relative_velocity": {
                "kilometers_per_second": "12.5332891397",
                "kilometers_per_hour": "45119.8409029474",
                "miles_per_hour": "28035.7144766119"
            },
            "miss_distance": {
                "astronomical": "0.0276657942",
                "lunar": "10.7619939438",
                "kilometers": "4138743.884178354",
                "miles": "2571696.1984911252"
            },
            "orbiting_body": "Earth"
        },
        {
            "close_approach_date": "2131-09-13",
            "close_approach_date_full": "2131-Sep-13 03:06",
            "epoch_date_close_approach": 5102708760000,
            "relative_velocity": {
                "kilometers_per_second": "26.5120094101",
                "kilometers_per_hour": "95443.2338761865",
                "miles_per_hour": "59304.7138493449"
            },
            "miss_distance": {
                "astronomical": "0.4779473978",
                "lunar": "185.9215377442",
                "kilometers": "71499912.682922686",
                "miles": "44427985.5881016268"
            },
            "orbiting_body": "Earth"
        }
    ],
    "orbital_data": {
        "orbit_id": "10",
        "orbit_determination_date": "2017-04-06 08:59:43",
        "first_observation_date": "2009-10-07",
        "last_observation_date": "2009-10-12",
        "data_arc_in_days": 5,
        "observations_used": 41,
        "orbit_uncertainty": "8",
        "minimum_orbit_intersection": ".0244801",
        "jupiter_tisserand_invariant": "3.533",
        "epoch_osculation": "2455113.5",
        "eccentricity": ".5903538196595302",
        "semi_major_axis": "2.065140771427495",
        "inclination": "4.837435799530543",
        "ascending_node_longitude": "34.48856992284876",
        "orbital_period": "1083.984115667658",
        "perihelion_distance": ".8459770288806447",
        "perihelion_argument": "36.48851308548983",
        "aphelion_distance": "3.284304513974346",
        "perihelion_time": "2455153.784160017310",
        "mean_anomaly": "346.6213006292078",
        "mean_motion": ".3321081875616465",
        "equinox": "J2000",
        "orbit_class": {
            "orbit_class_type": "APO",
            "orbit_class_description": "Near-Earth asteroid orbits which cross the Earth’s orbit similar to that of 1862 Apollo",
            "orbit_class_range": "a (semi-major axis) > 1.0 AU; q (perihelion) < 1.017 AU"
        }
    },
    "is_sentry_object": false
}